STARLINK-36523          
1 67460U 26008R   26030.91667824  .00109709  00000+0  70947-3 0  9998
2 67460  43.0007  62.6613 0001593 258.2482 267.4457 15.74993067  3742
STARLINK-36522          
1 67461U 26008S   26030.91667824  .00112753  00000+0  72869-3 0  9997
2 67461  43.0006  62.6563 0001803 278.1425 249.4544 15.74996413  3721
STARLINK-36504          
1 67462U 26008T   26030.91667824  .00063815  00000+0  41576-3 0  9993
2 67462  43.0007  62.6516 0001308 278.1424 251.3760 15.75019489  3744
STARLINK-36505          
1 67463U 26008U   26030.91667824  .00080957  00000+0  52568-3 0  9993
2 67463  43.0007  62.6474 0001830 275.8766 255.5558 15.75012680  3726
STARLINK-36421          
1 67464U 26008V   26030.91667824  .00057208  00000+0  37324-3 0  9990
2 67464  43.0006  62.6424 0001682 260.6904 272.6577 15.75024168  3727
STARLINK-36437          
1 67465U 26008W   26030.91667824  .00056948  00000+0  37156-3 0  9994
2 67465  43.0005  62.6369 0001702 269.3349 265.9289 15.75024968  3720
STARLINK-36520          
1 67466U 26008X   26030.91667824  .00067343  00000+0  43838-3 0  9990
2 67466  43.0002  62.6318 0001907 264.1184 273.0631 15.75018957  3721
STARLINK-36425          
1 67467U 26008Y   26030.91667824  .00056939  00000+0  37144-3 0  9993
2 67467  43.0003  62.6271 0002029 269.6831 269.4065 15.75028089  3723
STARLINK-36414          
1 67468U 26008Z   26030.91667824 -.01448964  00000+0 -91723-2 0  9992
2 67468  43.0009  62.3708 0001338 268.0572  12.7965 15.78425832  3727
STARLINK-36441          
1 67469U 26008AA  26030.91667824 -.01444268  00000+0 -97256-2 0  9993
2 67469  43.0007  62.3496 0001478 265.0613  23.9335 15.77051084  3726
STARLINK-36454          
1 67470U 26008AB  26030.91667824 -.01524394  00000+0 -10611-1 0  9993
2 67470  43.0004  62.3412 0001381 251.9539  40.0757 15.76478503  3723
STARLINK-36334          
1 67471U 26008AC  26030.91667824 -.01495973  00000+0 -97735-2 0  9997
2 67471  43.0006  62.3592 0001267 265.0422  19.9921 15.77827407  3725
