CCSDS_OMM_VERS = 2.0
CREATION_DATE  = 
ORIGINATOR     = 

OBJECT_NAME    = STARLINK-36523
OBJECT_ID      = 2026-008R
CENTER_NAME    = EARTH
REF_FRAME      = TEME
TIME_SYSTEM    = UTC
MEAN_ELEMENT_THEORY = SGP/SGP4

EPOCH          = 2026-01-30T22:00:00.999936
MEAN_MOTION    = 15.74993067
ECCENTRICITY   = .00015937
INCLINATION    = 43.0007
RA_OF_ASC_NODE = 62.6613
ARG_OF_PERICENTER = 258.2482
MEAN_ANOMALY   = 267.4457

EPHEMERIS_TYPE = 0
CLASSIFICATION_TYPE = U
NORAD_CAT_ID   = 67460
ELEMENT_SET_NO = 999
REV_AT_EPOCH   = 374
BSTAR          = .70946572E-3
MEAN_MOTION_DOT = .109709E-2
MEAN_MOTION_DDOT = 0

CCSDS_OMM_VERS = 2.0
CREATION_DATE  = 
ORIGINATOR     = 

OBJECT_NAME    = STARLINK-36522
OBJECT_ID      = 2026-008S
CENTER_NAME    = EARTH
REF_FRAME      = TEME
TIME_SYSTEM    = UTC
MEAN_ELEMENT_THEORY = SGP/SGP4

EPOCH          = 2026-01-30T22:00:00.999936
MEAN_MOTION    = 15.74996413
ECCENTRICITY   = .00018038
INCLINATION    = 43.0006
RA_OF_ASC_NODE = 62.6563
ARG_OF_PERICENTER = 278.1425
MEAN_ANOMALY   = 249.4544

EPHEMERIS_TYPE = 0
CLASSIFICATION_TYPE = U
NORAD_CAT_ID   = 67461
ELEMENT_SET_NO = 999
REV_AT_EPOCH   = 372
BSTAR          = .72868852E-3
MEAN_MOTION_DOT = .112753E-2
MEAN_MOTION_DDOT = 0

CCSDS_OMM_VERS = 2.0
CREATION_DATE  = 
ORIGINATOR     = 

OBJECT_NAME    = STARLINK-36504
OBJECT_ID      = 2026-008T
CENTER_NAME    = EARTH
REF_FRAME      = TEME
TIME_SYSTEM    = UTC
MEAN_ELEMENT_THEORY = SGP/SGP4

EPOCH          = 2026-01-30T22:00:00.999936
MEAN_MOTION    = 15.75019489
ECCENTRICITY   = .00013083
INCLINATION    = 43.0007
RA_OF_ASC_NODE = 62.6516
ARG_OF_PERICENTER = 278.1424
MEAN_ANOMALY   = 251.3760

EPHEMERIS_TYPE = 0
CLASSIFICATION_TYPE = U
NORAD_CAT_ID   = 67462
ELEMENT_SET_NO = 999
REV_AT_EPOCH   = 374
BSTAR          = .4157606E-3
MEAN_MOTION_DOT = .63815E-3
MEAN_MOTION_DDOT = 0

CCSDS_OMM_VERS = 2.0
CREATION_DATE  = 
ORIGINATOR     = 

OBJECT_NAME    = STARLINK-36505
OBJECT_ID      = 2026-008U
CENTER_NAME    = EARTH
REF_FRAME      = TEME
TIME_SYSTEM    = UTC
MEAN_ELEMENT_THEORY = SGP/SGP4

EPOCH          = 2026-01-30T22:00:00.999936
MEAN_MOTION    = 15.75012680
ECCENTRICITY   = .00018305
INCLINATION    = 43.0007
RA_OF_ASC_NODE = 62.6474
ARG_OF_PERICENTER = 275.8766
MEAN_ANOMALY   = 255.5558

EPHEMERIS_TYPE = 0
CLASSIFICATION_TYPE = U
NORAD_CAT_ID   = 67463
ELEMENT_SET_NO = 999
REV_AT_EPOCH   = 372
BSTAR          = .52567502E-3
MEAN_MOTION_DOT = .80957E-3
MEAN_MOTION_DDOT = 0

CCSDS_OMM_VERS = 2.0
CREATION_DATE  = 
ORIGINATOR     = 

OBJECT_NAME    = STARLINK-36421
OBJECT_ID      = 2026-008V
CENTER_NAME    = EARTH
REF_FRAME      = TEME
TIME_SYSTEM    = UTC
MEAN_ELEMENT_THEORY = SGP/SGP4

EPOCH          = 2026-01-30T22:00:00.999936
MEAN_MOTION    = 15.75024168
ECCENTRICITY   = .00016823
INCLINATION    = 43.0006
RA_OF_ASC_NODE = 62.6424
ARG_OF_PERICENTER = 260.6904
MEAN_ANOMALY   = 272.6577

EPHEMERIS_TYPE = 0
CLASSIFICATION_TYPE = U
NORAD_CAT_ID   = 67464
ELEMENT_SET_NO = 999
REV_AT_EPOCH   = 372
BSTAR          = .3732385E-3
MEAN_MOTION_DOT = .57208E-3
MEAN_MOTION_DDOT = 0

CCSDS_OMM_VERS = 2.0
CREATION_DATE  = 
ORIGINATOR     = 

OBJECT_NAME    = STARLINK-36437
OBJECT_ID      = 2026-008W
CENTER_NAME    = EARTH
REF_FRAME      = TEME
TIME_SYSTEM    = UTC
MEAN_ELEMENT_THEORY = SGP/SGP4

EPOCH          = 2026-01-30T22:00:00.999936
MEAN_MOTION    = 15.75024968
ECCENTRICITY   = .00017025
INCLINATION    = 43.0005
RA_OF_ASC_NODE = 62.6369
ARG_OF_PERICENTER = 269.3349
MEAN_ANOMALY   = 265.9289

EPHEMERIS_TYPE = 0
CLASSIFICATION_TYPE = U
NORAD_CAT_ID   = 67465
ELEMENT_SET_NO = 999
REV_AT_EPOCH   = 372
BSTAR          = .37155848E-3
MEAN_MOTION_DOT = .56948E-3
MEAN_MOTION_DDOT = 0

CCSDS_OMM_VERS = 2.0
CREATION_DATE  = 
ORIGINATOR     = 

OBJECT_NAME    = STARLINK-36520
OBJECT_ID      = 2026-008X
CENTER_NAME    = EARTH
REF_FRAME      = TEME
TIME_SYSTEM    = UTC
MEAN_ELEMENT_THEORY = SGP/SGP4

EPOCH          = 2026-01-30T22:00:00.999936
MEAN_MOTION    = 15.75018957
ECCENTRICITY   = .00019073
INCLINATION    = 43.0002
RA_OF_ASC_NODE = 62.6318
ARG_OF_PERICENTER = 264.1184
MEAN_ANOMALY   = 273.0631

EPHEMERIS_TYPE = 0
CLASSIFICATION_TYPE = U
NORAD_CAT_ID   = 67466
ELEMENT_SET_NO = 999
REV_AT_EPOCH   = 372
BSTAR          = .43838236E-3
MEAN_MOTION_DOT = .67343E-3
MEAN_MOTION_DDOT = 0

CCSDS_OMM_VERS = 2.0
CREATION_DATE  = 
ORIGINATOR     = 

OBJECT_NAME    = STARLINK-36425
OBJECT_ID      = 2026-008Y
CENTER_NAME    = EARTH
REF_FRAME      = TEME
TIME_SYSTEM    = UTC
MEAN_ELEMENT_THEORY = SGP/SGP4

EPOCH          = 2026-01-30T22:00:00.999936
MEAN_MOTION    = 15.75028089
ECCENTRICITY   = .00020298
INCLINATION    = 43.0003
RA_OF_ASC_NODE = 62.6271
ARG_OF_PERICENTER = 269.6831
MEAN_ANOMALY   = 269.4065

EPHEMERIS_TYPE = 0
CLASSIFICATION_TYPE = U
NORAD_CAT_ID   = 67467
ELEMENT_SET_NO = 999
REV_AT_EPOCH   = 372
BSTAR          = .37143768E-3
MEAN_MOTION_DOT = .56939E-3
MEAN_MOTION_DDOT = 0

CCSDS_OMM_VERS = 2.0
CREATION_DATE  = 
ORIGINATOR     = 

OBJECT_NAME    = STARLINK-36414
OBJECT_ID      = 2026-008Z
CENTER_NAME    = EARTH
REF_FRAME      = TEME
TIME_SYSTEM    = UTC
MEAN_ELEMENT_THEORY = SGP/SGP4

EPOCH          = 2026-01-30T22:00:00.999936
MEAN_MOTION    = 15.78425832
ECCENTRICITY   = .00013385
INCLINATION    = 43.0009
RA_OF_ASC_NODE = 62.3708
ARG_OF_PERICENTER = 268.0572
MEAN_ANOMALY   = 12.7965

EPHEMERIS_TYPE = 0
CLASSIFICATION_TYPE = U
NORAD_CAT_ID   = 67468
ELEMENT_SET_NO = 999
REV_AT_EPOCH   = 372
BSTAR          = -.91722661E-2
MEAN_MOTION_DOT = -.1448964E-1
MEAN_MOTION_DDOT = 0

CCSDS_OMM_VERS = 2.0
CREATION_DATE  = 
ORIGINATOR     = 

OBJECT_NAME    = STARLINK-36441
OBJECT_ID      = 2026-008AA
CENTER_NAME    = EARTH
REF_FRAME      = TEME
TIME_SYSTEM    = UTC
MEAN_ELEMENT_THEORY = SGP/SGP4

EPOCH          = 2026-01-30T22:00:00.999936
MEAN_MOTION    = 15.77051084
ECCENTRICITY   = .0001478
INCLINATION    = 43.0007
RA_OF_ASC_NODE = 62.3496
ARG_OF_PERICENTER = 265.0613
MEAN_ANOMALY   = 23.9335

EPHEMERIS_TYPE = 0
CLASSIFICATION_TYPE = U
NORAD_CAT_ID   = 67469
ELEMENT_SET_NO = 999
REV_AT_EPOCH   = 372
BSTAR          = -.97255905E-2
MEAN_MOTION_DOT = -.1444268E-1
MEAN_MOTION_DDOT = 0

CCSDS_OMM_VERS = 2.0
CREATION_DATE  = 
ORIGINATOR     = 

OBJECT_NAME    = STARLINK-36454
OBJECT_ID      = 2026-008AB
CENTER_NAME    = EARTH
REF_FRAME      = TEME
TIME_SYSTEM    = UTC
MEAN_ELEMENT_THEORY = SGP/SGP4

EPOCH          = 2026-01-30T22:00:00.999936
MEAN_MOTION    = 15.76478503
ECCENTRICITY   = .00013811
INCLINATION    = 43.0004
RA_OF_ASC_NODE = 62.3412
ARG_OF_PERICENTER = 251.9539
MEAN_ANOMALY   = 40.0757

EPHEMERIS_TYPE = 0
CLASSIFICATION_TYPE = U
NORAD_CAT_ID   = 67470
ELEMENT_SET_NO = 999
REV_AT_EPOCH   = 372
BSTAR          = -.10611139E-1
MEAN_MOTION_DOT = -.1524394E-1
MEAN_MOTION_DDOT = 0

CCSDS_OMM_VERS = 2.0
CREATION_DATE  = 
ORIGINATOR     = 

OBJECT_NAME    = STARLINK-36334
OBJECT_ID      = 2026-008AC
CENTER_NAME    = EARTH
REF_FRAME      = TEME
TIME_SYSTEM    = UTC
MEAN_ELEMENT_THEORY = SGP/SGP4

EPOCH          = 2026-01-30T22:00:00.999936
MEAN_MOTION    = 15.77827407
ECCENTRICITY   = .00012671
INCLINATION    = 43.0006
RA_OF_ASC_NODE = 62.3592
ARG_OF_PERICENTER = 265.0422
MEAN_ANOMALY   = 19.9921

EPHEMERIS_TYPE = 0
CLASSIFICATION_TYPE = U
NORAD_CAT_ID   = 67471
ELEMENT_SET_NO = 999
REV_AT_EPOCH   = 372
BSTAR          = -.97734961E-2
MEAN_MOTION_DOT = -.1495973E-1
MEAN_MOTION_DDOT = 0

